NORAD_CAT_ID,OBJECT_NAME,OBJECT_TYPE,EPOCH,MEAN_MOTION,ECCENTRICITY,INCLINATION,RA_OF_ASC_NODE,ARG_OF_PERICENTER,MEAN_ANOMALY,BSTAR,MEAN_MOTION_DOT,MEAN_MOTION_DDOT,TLE_LINE0,TLE_LINE1,TLE_LINE2,SEMIMAJOR_AXIS,PERIOD,APOGEE,PERIGEE,DECAYED
55655.0,STARLINK-5267,PAYLOAD,2023-08-31 22:00:01,15.02099548,0.0003151,69.9993,326.2404,278.0947,196.8585,-0.078263,-0.00960585,0.0,0 STARLINK-5267,1 55655U 23021AD  23243.91668981 -.00960585  00000-0 -78263-1 0  9998,2 55655  69.9993 326.2404 0003151 278.0947 196.8585 15.02099548  5977,6938.56,95.866,562.612,558.239,0.0
55655.0,STARLINK-5267,PAYLOAD,2023-09-01 06:00:00,15.01441097,0.0003141,69.9995,325.3955,274.3361,202.1413,-0.076365,-0.00913384,0.0,0 STARLINK-5267,1 55655U 23021AD  23244.25001157 -.00913384  00000-0 -76365-1 0  9998,2 55655  69.9995 325.3955 0003141 274.3361 202.1413 15.01441097 31102,6940.589,95.908,564.634,560.274,0.0
55655.0,STARLINK-5267,PAYLOAD,2023-09-01 14:00:01,15.00770908,0.0003185,69.9993,324.5514,279.9944,197.309,-0.076404,-0.00898966,0.0,0 STARLINK-5267,1 55655U 23021AD  23244.58334491 -.00898966  00000-0 -76404-1 0  9996,2 55655  69.9993 324.5514 0003185 279.9944 197.3090 15.00770908  6011,6942.655,95.951,566.731,562.309,0.0
55655.0,STARLINK-5267,PAYLOAD,2023-09-01 22:00:00,15.00121638,0.0003121,69.9991,323.7081,277.4079,199.9225,-0.078021,-0.00902185,0.0,0 STARLINK-5267,1 55655U 23021AD  23244.91667824 -.00902185  00000-0 -78021-1 0  9998,2 55655  69.9991 323.7081 0003121 277.4079 199.9225 15.00121638 31208,6944.658,95.992,568.69,564.355,0.0
55655.0,STARLINK-5267,PAYLOAD,2023-09-02 06:00:00,14.99348499,0.0003087,69.9995,322.8656,272.9565,203.6248,-0.0057126,-0.00069394,0.0,0 STARLINK-5267,1 55655U 23021AD  23245.25001157 -.00069394  00000-0 -57126-2 0  9997,2 55655  69.9995 322.8656 0003087 272.9565 203.6248 14.99348499 31257,6947.045,96.042,571.055,566.765,0.0
55655.0,STARLINK-5267,PAYLOAD,2023-09-02 14:00:01,14.99285105,0.0003099,69.9995,322.0236,279.3174,195.9427,0.0020661,0.00025268,0.0,0 STARLINK-5267,1 55655U 23021AD  23245.58334491  .00025268  00000-0  20661-2 0  9997,2 55655  69.9995 322.0236 0003099 279.3174 195.9427 14.99285105  5946,6947.241,96.046,571.259,566.953,0.0
55655.0,STARLINK-5267,PAYLOAD,2023-09-02 22:00:00,14.99301688,0.0003054,69.9995,321.1821,275.4115,198.484,-0.0013614,-0.00016713,0.0,0 STARLINK-5267,1 55655U 23021AD  23245.91667824 -.00016713  00000-0 -13614-2 0  9990,2 55655  69.9995 321.1821 0003054 275.4115 198.4840 14.99301688 31355,6947.19,96.045,571.176,566.933,0.0
55655.0,STARLINK-5267,PAYLOAD,2023-09-03 14:00:01,14.99307925,0.0003101,69.9999,319.4986,277.1558,194.0513,-0.0014377,-0.00017645,0.0,0 STARLINK-5267,1 55655U 23021AD  23246.58334491 -.00017645  00000-0 -14377-2 0  9997,2 55655  69.9999 319.4986 0003101 277.1558 194.0513 14.99307925 31454,6947.17,96.044,571.19,566.881,0.0
55655.0,STARLINK-5267,PAYLOAD,2023-09-04 14:00:01,14.99278085,0.0003094,70.0001,316.9732,276.8603,190.263,0.0035954,0.00044151,0.0,0 STARLINK-5267,1 55655U 23021AD  23247.58334491  .00044151  00000-0  35954-2 0  9992,2 55655  70.0001 316.9732 0003094 276.8603 190.2630 14.99278085  5947,6947.263,96.046,571.277,566.978,0.0
55655.0,STARLINK-5267,PAYLOAD,2023-09-04 22:00:00,14.99302763,0.0003026,69.9999,316.1313,273.3402,192.424,-0.00077507,-9.565e-05,0.0,0 STARLINK-5267,1 55655U 23021AD  23247.91667824 -.00009565  00000-0 -77507-3 0  9991,2 55655  69.9999 316.1313 0003026 273.3402 192.4240 14.99302763 31650,6947.186,96.045,571.154,566.949,0.0
55655.0,STARLINK-5267,PAYLOAD,2023-09-05 14:00:01,14.99300147,0.0003097,70.0001,314.4476,276.6224,186.4531,0.00055658,6.723e-05,0.0,0 STARLINK-5267,1 55655U 23021AD  23248.58334491  .00006723  00000-0  55658-3 0  9990,2 55655  70.0001 314.4476 0003097 276.6224 186.4531 14.99300147 31755,6947.194,96.045,571.211,566.908,0.0
55655.0,STARLINK-5267,PAYLOAD,2023-09-06 03:57:11,14.9929815,0.0001347,70.0006,312.9816,181.5493,178.5663,-0.00028701,-3.603e-05,0.0,0 STARLINK-5267,1 55655U 23021AD  23249.16471724 -.00003603  00000-0 -28701-3 0  9991,2 55655  70.0006 312.9816 0001347 181.5493 178.5663 14.99298150 31847,6947.201,96.045,570.001,568.13,0.0
55655.0,STARLINK-5267,PAYLOAD,2023-09-06 21:33:58,14.99297819,0.000339,70.0001,311.1259,275.3819,84.6954,4.9713e-05,5.14e-06,0.0,0 STARLINK-5267,1 55655U 23021AD  23249.89859328  .00000514  00000-0  49713-4 0  9994,2 55655  70.0001 311.1259 0003390 275.3819  84.6954 14.99297819 32255,6947.202,96.045,571.422,566.711,0.0
55655.0,STARLINK-5267,PAYLOAD,2023-09-07 08:46:29,14.99298384,0.0002749,70.0001,309.9473,257.4244,102.6609,-0.0001571,-2.015e-05,0.0,0 STARLINK-5267,1 55655U 23021AD  23250.36561656 -.00002015  00000-0 -15710-3 0  9991,2 55655  70.0001 309.9473 0002749 257.4244 102.6609 14.99298384 32029,6947.2,96.045,570.975,567.155,0.0
55655.0,STARLINK-5267,PAYLOAD,2023-09-07 13:34:42,14.99287852,0.0002665,70.0,309.4418,263.7008,96.3848,4.2455e-05,4.26e-06,0.0,0 STARLINK-5267,1 55655U 23021AD  23250.56576944  .00000426  00000-0  42455-4 0  9998,2 55655  70.0000 309.4418 0002665 263.7008  96.3848 14.99287852 32355,6947.232,96.046,570.949,567.246,0.0
55655.0,STARLINK-5267,PAYLOAD,2023-09-07 21:35:03,14.99307942,0.0003199,69.9984,308.5981,270.9895,89.0898,-0.00013907,-1.795e-05,0.0,0 STARLINK-5267,1 55655U 23021AD  23250.89934319 -.00001795  00000-0 -13907-3 0  9999,2 55655  69.9984 308.5981 0003199 270.9895  89.0898 14.99307942 32105,6947.17,96.044,571.258,566.813,0.0
55655.0,STARLINK-5267,PAYLOAD,2023-09-08 13:35:46,14.99303973,0.0003059,69.9985,306.9139,270.3693,89.7116,-1.1184e-05,-2.31e-06,0.0,0 STARLINK-5267,1 55655U 23021AD  23251.56651011 -.00000231  00000-0 -11184-4 0  9999,2 55655  69.9985 306.9139 0003059 270.3693  89.7116 14.99303973 32502,6947.183,96.045,571.173,566.922,0.0
55655.0,STARLINK-5267,PAYLOAD,2023-09-08 15:11:50,14.99305214,0.0003066,69.9985,306.7455,270.4907,89.5901,2.5531e-06,-6.3e-07,0.0,0 STARLINK-5267,1 55655U 23021AD  23251.63322562 -.00000063  00000-0  25531-5 0  9997,2 55655  69.9985 306.7455 0003066 270.4907  89.5901 14.99305214 32519,6947.179,96.044,571.174,566.914,0.0
55655.0,STARLINK-5267,PAYLOAD,2023-09-09 02:24:21,14.99295026,0.0003353,69.9985,305.5666,269.9041,90.1734,-2.8219e-05,-4.39e-06,0.0,0 STARLINK-5267,1 55655U 23021AD  23252.10024962 -.00000439  00000-0 -28219-4 0  9996,2 55655  69.9985 305.5666 0003353 269.9041  90.1734 14.99295026 32286,6947.21,96.045,571.405,566.746,0.0
55655.0,STARLINK-5267,PAYLOAD,2023-09-09 10:24:43,14.99274132,0.0002925,69.9985,304.7241,271.7202,88.3622,0.0003551,4.251e-05,0.0,0 STARLINK-5267,1 55655U 23021AD  23252.43383869  .00004251  00000-0  35510-3 0  9991,2 55655  69.9985 304.7241 0002925 271.7202  88.3622 14.99274132 32336,6947.275,96.046,571.172,567.108,0.0
55655.0,STARLINK-5267,PAYLOAD,2023-09-09 13:36:51,14.99297692,0.0003036,69.9985,304.387,271.0792,89.0019,9.9104e-06,2.7e-07,0.0,0 STARLINK-5267,1 55655U 23021AD  23252.56726682  .00000027  00000-0  99104-5 0  9997,2 55655  69.9985 304.3870 0003036 271.0792  89.0019 14.99297692 32650,6947.202,96.045,571.176,566.958,0.0
55655.0,STARLINK-5267,PAYLOAD,2023-09-10 10:25:47,14.99304085,0.0002971,69.9986,302.1976,268.743,91.3389,3.4693e-05,3.31e-06,0.0,0 STARLINK-5267,1 55655U 23021AD  23253.43457963  .00000331  00000-0  34693-4 0  9996,2 55655  69.9986 302.1976 0002971 268.7430  91.3389 14.99304085 32485,6947.182,96.045,571.111,566.983,0.0
55655.0,STARLINK-5267,PAYLOAD,2023-09-10 13:37:56,14.99304647,0.0002967,69.9986,301.8606,268.846,91.236,4e-05,3.96e-06,0.0,0 STARLINK-5267,1 55655U 23021AD  23253.56801240  .00000396  00000-0  40000-4 0  9991,2 55655  69.9986 301.8606 0002967 268.8460  91.2360 14.99304647 32808,6947.181,96.045,571.107,566.984,0.0
55655.0,STARLINK-5267,PAYLOAD,2023-09-11 10:26:53,14.99296398,0.0003,69.9984,299.6699,270.345,89.7365,4.8083e-06,-3.5e-07,0.0,0 STARLINK-5267,1 55655U 23021AD  23254.43533707 -.00000035  00000-0  48083-5 0  9999,2 55655  69.9984 299.6699 0003000 270.3450  89.7365 14.99296398 32639,6947.206,96.045,571.155,566.987,0.0
55655.0,STARLINK-5267,PAYLOAD,2023-09-11 13:39:01,14.99298114,0.0002996,69.9985,299.3329,270.2336,89.848,2.1993e-05,1.75e-06,0.0,0 STARLINK-5267,1 55655U 23021AD  23254.56876929  .00000175  00000-0  21993-4 0  9993,2 55655  69.9985 299.3329 0002996 270.2336  89.8480 14.99298114 32954,6947.201,96.045,571.147,566.984,0.0
55655.0,STARLINK-5267,PAYLOAD,2023-09-12 10:27:57,14.99301736,0.0002677,69.9994,297.1431,259.9668,100.119,-2.6162e-06,-1.26e-06,0.0,0 STARLINK-5267,1 55655U 23021AD  23255.43608478 -.00000126  00000-0 -26162-5 0  9994,2 55655  69.9994 297.1431 0002677 259.9668 100.1190 14.99301736 32783,6947.19,96.045,570.914,567.195,0.0
55655.0,STARLINK-5267,PAYLOAD,2023-09-12 12:04:02,14.99302304,0.00027,69.9991,296.9743,260.9602,99.1252,2.326e-06,-6.5e-07,0.0,0 STARLINK-5267,1 55655U 23021AD  23255.50280096 -.00000065  00000-0  23260-5 0  9991,2 55655  69.9991 296.9743 0002700 260.9602  99.1252 14.99302304 33093,6947.188,96.045,570.928,567.177,0.0
55655.0,STARLINK-5267,PAYLOAD,2023-09-13 10:29:02,14.99302433,0.0002707,69.9989,294.6157,257.3748,102.7109,6.8366e-05,7.43e-06,0.0,0 STARLINK-5267,1 55655U 23021AD  23256.43683196  .00000743  00000-0  68366-4 0  9999,2 55655  69.9989 294.6157 0002707 257.3748 102.7109 14.99302433 32939,6947.187,96.045,570.933,567.172,0.0
55655.0,STARLINK-5267,PAYLOAD,2023-09-13 12:05:06,14.99302446,0.0002758,69.9987,294.447,260.5777,99.5071,6.0069e-05,6.41e-06,0.0,0 STARLINK-5267,1 55655U 23021AD  23256.50354891  .00000641  00000-0  60069-4 0  9993,2 55655  69.9987 294.4470 0002758 260.5777  99.5071 14.99302446 33247,6947.187,96.045,570.968,567.136,0.0
55655.0,STARLINK-5267,PAYLOAD,2023-09-13 20:05:29,14.99291502,0.00021,70.0004,293.6039,277.3743,82.7178,-4.8815e-05,-6.91e-06,0.0,0 STARLINK-5267,1 55655U 23021AD  23256.83714611 -.00000691  00000-0 -48815-4 0  9991,2 55655  70.0004 293.6039 0002100 277.3743  82.7178 14.99291502 33299,6947.221,96.045,570.545,567.627,0.0
